{
  "type": "FeatureCollection",
  "features": [
    {
      "type": "Feature",
      "properties": {
        "norad_id": 32212,
        "name": "FENGYUN 1C DEB",
        "group": "fengyun-1c-debris",
        "lat": -77.47394368272998,
        "lon": 143.05740181432674,
        "alt_km": 832.2483656940913,
        "timestamp": "2025-12-21T20:41:08.246014+00:00",
        "meta_object_name": "FENGYUN 1C DEB",
        "meta_object_id": "1999-025CVJ",
        "meta_epoch": "2025-12-17T05:30:07.163712",
        "meta_mean_motion": 14.40337107,
        "meta_eccentricity": 0.01377953,
        "meta_inclination": 99.5731,
        "meta_ra_of_asc_node": 88.4501,
        "meta_arg_of_pericenter": 65.5611,
        "meta_mean_anomaly": 325.7716,
        "meta_ephemeris_type": 0,
        "meta_classification_type": "U",
        "meta_norad_cat_id": 32212,
        "meta_element_set_no": 999,
        "meta_rev_at_epoch": 96126,
        "meta_bstar": 0.00030524144,
        "meta_mean_motion_dot": 1.024e-05,
        "meta_mean_motion_ddot": 0,
        "tle_line1": "1 32212U 99025CVJ 25351.22924958  .00001024  00000+0  30524-3 0  9995",
        "tle_line2": "2 32212  99.5731  88.4501 0137795  65.5611 325.7716 14.40337107961263"
      },
      "geometry": {
        "type": "Point",
        "coordinates": [
          143.05740181432674,
          -77.47394368272998
        ]
      }
    },
    {
      "type": "Feature",
      "properties": {
        "norad_id": 32214,
        "name": "FENGYUN 1C DEB",
        "group": "fengyun-1c-debris",
        "lat": -78.6248606954663,
        "lon": 73.56129042920817,
        "alt_km": 948.7744814350835,
        "timestamp": "2025-12-21T20:41:08.246023+00:00",
        "meta_object_name": "FENGYUN 1C DEB",
        "meta_object_id": "1999-025CVL",
        "meta_epoch": "2025-12-21T13:11:06.590112",
        "meta_mean_motion": 13.90626456,
        "meta_eccentricity": 0.01880393,
        "meta_inclination": 99.042,
        "meta_ra_of_asc_node": 20.9323,
        "meta_arg_of_pericenter": 15.143,
        "meta_mean_anomaly": 140.2339,
        "meta_ephemeris_type": 0,
        "meta_classification_type": "U",
        "meta_norad_cat_id": 32214,
        "meta_element_set_no": 999,
        "meta_rev_at_epoch": 62544,
        "meta_bstar": 0.0033035787,
        "meta_mean_motion_dot": 4.71e-05,
        "meta_mean_motion_ddot": 0,
        "tle_line1": "1 32214U 99025CVL 25355.54938183  .00004710  00000+0  33036-2 0  9996",
        "tle_line2": "2 32214  99.0420  20.9323 0188039  15.1430 140.2339 13.90626456625445"
      },
      "geometry": {
        "type": "Point",
        "coordinates": [
          73.56129042920817,
          -78.6248606954663
        ]
      }
    },
    {
      "type": "Feature",
      "properties": {
        "norad_id": 32218,
        "name": "FENGYUN 1C DEB",
        "group": "fengyun-1c-debris",
        "lat": 58.99901897268497,
        "lon": 25.18550682516876,
        "alt_km": 693.6492542377064,
        "timestamp": "2025-12-21T20:41:08.246032+00:00",
        "meta_object_name": "FENGYUN 1C DEB",
        "meta_object_id": "1999-025CVQ",
        "meta_epoch": "2025-12-20T19:28:12.294624",
        "meta_mean_motion": 14.55536952,
        "meta_eccentricity": 0.00630558,
        "meta_inclination": 98.8112,
        "meta_ra_of_asc_node": 189.118,
        "meta_arg_of_pericenter": 43.2318,
        "meta_mean_anomaly": 333.7092,
        "meta_ephemeris_type": 0,
        "meta_classification_type": "U",
        "meta_norad_cat_id": 32218,
        "meta_element_set_no": 999,
        "meta_rev_at_epoch": 96350,
        "meta_bstar": 0.00051880203,
        "meta_mean_motion_dot": 2.268e-05,
        "meta_mean_motion_ddot": 0,
        "tle_line1": "1 32218U 99025CVQ 25354.81125341  .00002268  00000+0  51880-3 0  9997",
        "tle_line2": "2 32218  98.8112 189.1180 0063055  43.2318 333.7092 14.55536952963500"
      },
      "geometry": {
        "type": "Point",
        "coordinates": [
          25.18550682516876,
          58.99901897268497
        ]
      }
    },
    {
      "type": "Feature",
      "properties": {
        "norad_id": 32221,
        "name": "FENGYUN 1C DEB",
        "group": "fengyun-1c-debris",
        "lat": 66.45400343254619,
        "lon": -13.694830677138423,
        "alt_km": 587.2314389755411,
        "timestamp": "2025-12-21T20:41:08.246041+00:00",
        "meta_object_name": "FENGYUN 1C DEB",
        "meta_object_id": "1999-025CVT",
        "meta_epoch": "2025-12-21T08:39:23.372352",
        "meta_mean_motion": 14.5872858,
        "meta_eccentricity": 0.01470508,
        "meta_inclination": 98.5661,
        "meta_ra_of_asc_node": 145.5519,
        "meta_arg_of_pericenter": 119.3127,
        "meta_mean_anomaly": 242.2856,
        "meta_ephemeris_type": 0,
        "meta_classification_type": "U",
        "meta_norad_cat_id": 32221,
        "meta_element_set_no": 999,
        "meta_rev_at_epoch": 97323,
        "meta_bstar": 0.00025684348,
        "meta_mean_motion_dot": 1.336e-05,
        "meta_mean_motion_ddot": 0,
        "tle_line1": "1 32221U 99025CVT 25355.36068718  .00001336  00000+0  25684-3 0  9994",
        "tle_line2": "2 32221  98.5661 145.5519 0147050 119.3127 242.2856 14.58728580973239"
      },
      "geometry": {
        "type": "Point",
        "coordinates": [
          -13.694830677138423,
          66.45400343254619
        ]
      }
    },
    {
      "type": "Feature",
      "properties": {
        "norad_id": 32223,
        "name": "FENGYUN 1C DEB",
        "group": "fengyun-1c-debris",
        "lat": -20.513336552945127,
        "lon": -108.41042737462139,
        "alt_km": 827.4179243917615,
        "timestamp": "2025-12-21T20:41:08.246051+00:00",
        "meta_object_name": "FENGYUN 1C DEB",
        "meta_object_id": "1999-025CVV",
        "meta_epoch": "2025-12-13T23:18:00.552672",
        "meta_mean_motion": 14.20905079,
        "meta_eccentricity": 0.00468432,
        "meta_inclination": 98.839,
        "meta_ra_of_asc_node": 67.0353,
        "meta_arg_of_pericenter": 313.8611,
        "meta_mean_anomaly": 224.3875,
        "meta_ephemeris_type": 0,
        "meta_classification_type": "U",
        "meta_norad_cat_id": 32223,
        "meta_element_set_no": 999,
        "meta_rev_at_epoch": 64241,
        "meta_bstar": 0.0016444924,
        "meta_mean_motion_dot": 3.554e-05,
        "meta_mean_motion_ddot": 0,
        "tle_line1": "1 32223U 99025CVV 25347.97083973  .00003554  00000+0  16445-2 0  9992",
        "tle_line2": "2 32223  98.8390  67.0353 0046843 313.8611 224.3875 14.20905079642418"
      },
      "geometry": {
        "type": "Point",
        "coordinates": [
          -108.41042737462139,
          -20.513336552945127
        ]
      }
    },
    {
      "type": "Feature",
      "properties": {
        "norad_id": 32224,
        "name": "FENGYUN 1C DEB",
        "group": "fengyun-1c-debris",
        "lat": 22.081243085652826,
        "lon": -56.45532169675576,
        "alt_km": 725.3483298926012,
        "timestamp": "2025-12-21T20:41:08.246060+00:00",
        "meta_object_name": "FENGYUN 1C DEB",
        "meta_object_id": "1999-025CVW",
        "meta_epoch": "2025-12-20T19:27:54.027072",
        "meta_mean_motion": 14.34036481,
        "meta_eccentricity": 0.00770617,
        "meta_inclination": 98.9854,
        "meta_ra_of_asc_node": 306.1335,
        "meta_arg_of_pericenter": 43.2152,
        "meta_mean_anomaly": 317.5044,
        "meta_ephemeris_type": 0,
        "meta_classification_type": "U",
        "meta_norad_cat_id": 32224,
        "meta_element_set_no": 999,
        "meta_rev_at_epoch": 95839,
        "meta_bstar": 0.00023960667,
        "meta_mean_motion_dot": 6.45e-06,
        "meta_mean_motion_ddot": 0,
        "tle_line1": "1 32224U 99025CVW 25354.81104198  .00000645  00000+0  23961-3 0  9997",
        "tle_line2": "2 32224  98.9854 306.1335 0077061  43.2152 317.5044 14.34036481958399"
      },
      "geometry": {
        "type": "Point",
        "coordinates": [
          -56.45532169675576,
          22.081243085652826
        ]
      }
    },
    {
      "type": "Feature",
      "properties": {
        "norad_id": 32225,
        "name": "FENGYUN 1C DEB",
        "group": "fengyun-1c-debris",
        "lat": 9.768739670768985,
        "lon": 43.085610899702424,
        "alt_km": 901.8298435412244,
        "timestamp": "2025-12-21T20:41:08.246069+00:00",
        "meta_object_name": "FENGYUN 1C DEB",
        "meta_object_id": "1999-025CVX",
        "meta_epoch": "2025-12-18T09:22:02.510112",
        "meta_mean_motion": 14.13050119,
        "meta_eccentricity": 0.00719651,
        "meta_inclination": 99.0915,
        "meta_ra_of_asc_node": 41.1408,
        "meta_arg_of_pericenter": 190.6397,
        "meta_mean_anomaly": 169.3256,
        "meta_ephemeris_type": 0,
        "meta_classification_type": "U",
        "meta_norad_cat_id": 32225,
        "meta_element_set_no": 999,
        "meta_rev_at_epoch": 68196,
        "meta_bstar": 0.00018827687,
        "meta_mean_motion_dot": 3.14e-06,
        "meta_mean_motion_ddot": 0,
        "tle_line1": "1 32225U 99025CVX 25352.39030683  .00000314  00000+0  18828-3 0  9995",
        "tle_line2": "2 32225  99.0915  41.1408 0071965 190.6397 169.3256 14.13050119681967"
      },
      "geometry": {
        "type": "Point",
        "coordinates": [
          43.085610899702424,
          9.768739670768985
        ]
      }
    }
  ]
}